[{"OBJECT_NAME":"STARLINK-36939","OBJECT_ID":"2026-040V","EPOCH":"2026-03-19T06:00:02.000160","MEAN_MOTION":15.81084607,"ECCENTRICITY":0.0001764,"INCLINATION":97.2788,"RA_OF_ASC_NODE":27.1913,"ARG_OF_PERICENTER":119.4916,"MEAN_ANOMALY":170.8013,"EPHEMERIS_TYPE":0,"CLASSIFICATION_TYPE":"U","NORAD_CAT_ID":68034,"ELEMENT_SET_NO":999,"REV_AT_EPOCH":396,"BSTAR":-0.010746559,"MEAN_MOTION_DOT":-0.01831728,"MEAN_MOTION_DDOT":0},{"OBJECT_NAME":"STARLINK-36943","OBJECT_ID":"2026-040W","EPOCH":"2026-03-19T06:00:02.000160","MEAN_MOTION":15.79679369,"ECCENTRICITY":0.00016163,"INCLINATION":97.2838,"RA_OF_ASC_NODE":27.1995,"ARG_OF_PERICENTER":128.7456,"MEAN_ANOMALY":173.865,"EPHEMERIS_TYPE":0,"CLASSIFICATION_TYPE":"U","NORAD_CAT_ID":68035,"ELEMENT_SET_NO":999,"REV_AT_EPOCH":401,"BSTAR":-0.011639769,"MEAN_MOTION_DOT":-0.01855998,"MEAN_MOTION_DDOT":0},{"OBJECT_NAME":"STARLINK-36906","OBJECT_ID":"2026-040X","EPOCH":"2026-03-19T06:00:02.000160","MEAN_MOTION":15.81097653,"ECCENTRICITY":0.00015896,"INCLINATION":97.2792,"RA_OF_ASC_NODE":27.1886,"ARG_OF_PERICENTER":93.1813,"MEAN_ANOMALY":192.831,"EPHEMERIS_TYPE":0,"CLASSIFICATION_TYPE":"U","NORAD_CAT_ID":68036,"ELEMENT_SET_NO":999,"REV_AT_EPOCH":396,"BSTAR":-0.010308827,"MEAN_MOTION_DOT":-0.01730194,"MEAN_MOTION_DDOT":0},{"OBJECT_NAME":"STARLINK-36388","OBJECT_ID":"2026-040Y","EPOCH":"2026-03-19T06:00:02.000160","MEAN_MOTION":15.81027851,"ECCENTRICITY":0.00020625,"INCLINATION":97.2785,"RA_OF_ASC_NODE":27.1936,"ARG_OF_PERICENTER":118.3659,"MEAN_ANOMALY":176.2359,"EPHEMERIS_TYPE":0,"CLASSIFICATION_TYPE":"U","NORAD_CAT_ID":68037,"ELEMENT_SET_NO":999,"REV_AT_EPOCH":391,"BSTAR":-0.010994183,"MEAN_MOTION_DOT":-0.01864645,"MEAN_MOTION_DDOT":0},{"OBJECT_NAME":"STARLINK-36895","OBJECT_ID":"2026-040Z","EPOCH":"2026-03-19T06:00:02.000160","MEAN_MOTION":15.81154365,"ECCENTRICITY":0.00016684,"INCLINATION":97.2773,"RA_OF_ASC_NODE":27.1845,"ARG_OF_PERICENTER":115.8672,"MEAN_ANOMALY":165.8593,"EPHEMERIS_TYPE":0,"CLASSIFICATION_TYPE":"U","NORAD_CAT_ID":68038,"ELEMENT_SET_NO":999,"REV_AT_EPOCH":396,"BSTAR":-0.010295252,"MEAN_MOTION_DOT":-0.01732232,"MEAN_MOTION_DDOT":0},{"OBJECT_NAME":"STARLINK-36373","OBJECT_ID":"2026-040AA","EPOCH":"2026-03-19T06:00:02.000160","MEAN_MOTION":15.81128646,"ECCENTRICITY":0.00012541,"INCLINATION":97.2773,"RA_OF_ASC_NODE":27.183,"ARG_OF_PERICENTER":88.7161,"MEAN_ANOMALY":188.7609,"EPHEMERIS_TYPE":0,"CLASSIFICATION_TYPE":"U","NORAD_CAT_ID":68039,"ELEMENT_SET_NO":999,"REV_AT_EPOCH":391,"BSTAR":-0.0096861718,"MEAN_MOTION_DOT":-0.01641255,"MEAN_MOTION_DDOT":0},{"OBJECT_NAME":"STARLINK-36711","OBJECT_ID":"2026-041A","EPOCH":"2026-03-19T05:21:27.132480","MEAN_MOTION":15.75253633,"ECCENTRICITY":0.00011308,"INCLINATION":53.1598,"RA_OF_ASC_NODE":14.5492,"ARG_OF_PERICENTER":90.5834,"MEAN_ANOMALY":269.5316,"EPHEMERIS_TYPE":0,"CLASSIFICATION_TYPE":"U","NORAD_CAT_ID":68040,"ELEMENT_SET_NO":999,"REV_AT_EPOCH":272,"BSTAR":0.00073858271,"MEAN_MOTION_DOT":0.00114188,"MEAN_MOTION_DDOT":0},{"OBJECT_NAME":"STARLINK-36825","OBJECT_ID":"2026-041B","EPOCH":"2026-03-19T04:56:30.486624","MEAN_MOTION":15.80940431,"ECCENTRICITY":9.524e-5,"INCLINATION":53.1598,"RA_OF_ASC_NODE":14.4323,"ARG_OF_PERICENTER":101.4581,"MEAN_ANOMALY":258.6549,"EPHEMERIS_TYPE":0,"CLASSIFICATION_TYPE":"U","NORAD_CAT_ID":68041,"ELEMENT_SET_NO":999,"REV_AT_EPOCH":272,"BSTAR":0.0010143831,"MEAN_MOTION_DOT":0.00204966,"MEAN_MOTION_DDOT":0},{"OBJECT_NAME":"STARLINK-36925","OBJECT_ID":"2026-041C","EPOCH":"2026-03-19T05:21:55.532160","MEAN_MOTION":15.75254642,"ECCENTRICITY":0.00012482,"INCLINATION":53.1598,"RA_OF_ASC_NODE":14.5501,"ARG_OF_PERICENTER":94.6104,"MEAN_ANOMALY":265.5059,"EPHEMERIS_TYPE":0,"CLASSIFICATION_TYPE":"U","NORAD_CAT_ID":68042,"ELEMENT_SET_NO":999,"REV_AT_EPOCH":272,"BSTAR":0.00082386181,"MEAN_MOTION_DOT":0.00127657,"MEAN_MOTION_DDOT":0},{"OBJECT_NAME":"STARLINK-36902","OBJECT_ID":"2026-041D","EPOCH":"2026-03-19T04:55:25.627008","MEAN_MOTION":15.8094119,"ECCENTRICITY":9.979e-5,"INCLINATION":53.16,"RA_OF_ASC_NODE":14.4288,"ARG_OF_PERICENTER":79.0095,"MEAN_ANOMALY":281.104,"EPHEMERIS_TYPE":0,"CLASSIFICATION_TYPE":"U","NORAD_CAT_ID":68043,"ELEMENT_SET_NO":999,"REV_AT_EPOCH":272,"BSTAR":0.0010495902,"MEAN_MOTION_DOT":0.00212294,"MEAN_MOTION_DDOT":0},{"OBJECT_NAME":"STARLINK-36966","OBJECT_ID":"2026-041E","EPOCH":"2026-03-19T05:15:23.231232","MEAN_MOTION":15.75271581,"ECCENTRICITY":0.00010581,"INCLINATION":53.1601,"RA_OF_ASC_NODE":14.5208,"ARG_OF_PERICENTER":108.3004,"MEAN_ANOMALY":251.8132,"EPHEMERIS_TYPE":0,"CLASSIFICATION_TYPE":"U","NORAD_CAT_ID":68044,"ELEMENT_SET_NO":999,"REV_AT_EPOCH":272,"BSTAR":0.00074177871,"MEAN_MOTION_DOT":0.00114783,"MEAN_MOTION_DDOT":0},{"OBJECT_NAME":"STARLINK-36864","OBJECT_ID":"2026-041F","EPOCH":"2026-03-19T05:14:54.981888","MEAN_MOTION":15.7526006,"ECCENTRICITY":0.00013541,"INCLINATION":53.1601,"RA_OF_ASC_NODE":14.5186,"ARG_OF_PERICENTER":90.8659,"MEAN_ANOMALY":269.2517,"EPHEMERIS_TYPE":0,"CLASSIFICATION_TYPE":"U","NORAD_CAT_ID":68045,"ELEMENT_SET_NO":999,"REV_AT_EPOCH":272,"BSTAR":0.00076194559,"MEAN_MOTION_DOT":0.00117906,"MEAN_MOTION_DDOT":0},{"OBJECT_NAME":"STARLINK-36321","OBJECT_ID":"2026-041G","EPOCH":"2026-03-19T03:20:04.123104","MEAN_MOTION":15.8096431,"ECCENTRICITY":9.833e-5,"INCLINATION":53.1603,"RA_OF_ASC_NODE":14.725,"ARG_OF_PERICENTER":101.9488,"MEAN_ANOMALY":258.1645,"EPHEMERIS_TYPE":0,"CLASSIFICATION_TYPE":"U","NORAD_CAT_ID":68046,"ELEMENT_SET_NO":999,"REV_AT_EPOCH":271,"BSTAR":0.0013349735,"MEAN_MOTION_DOT":0.00272407,"MEAN_MOTION_DDOT":0},{"OBJECT_NAME":"STARLINK-36181","OBJECT_ID":"2026-041H","EPOCH":"2026-03-19T04:52:11.242560","MEAN_MOTION":15.80944412,"ECCENTRICITY":9.819e-5,"INCLINATION":53.1602,"RA_OF_ASC_NODE":14.4129,"ARG_OF_PERICENTER":89.2192,"MEAN_ANOMALY":270.8943,"EPHEMERIS_TYPE":0,"CLASSIFICATION_TYPE":"U","NORAD_CAT_ID":68047,"ELEMENT_SET_NO":999,"REV_AT_EPOCH":272,"BSTAR":0.0011106066,"MEAN_MOTION_DOT":0.00225045,"MEAN_MOTION_DDOT":0},{"OBJECT_NAME":"STARLINK-36318","OBJECT_ID":"2026-041J","EPOCH":"2026-03-19T06:00:02.000160","MEAN_MOTION":15.75232016,"ECCENTRICITY":0.00010687,"INCLINATION":53.1606,"RA_OF_ASC_NODE":14.3149,"ARG_OF_PERICENTER":78.8668,"MEAN_ANOMALY":122.92,"EPHEMERIS_TYPE":0,"CLASSIFICATION_TYPE":"U","NORAD_CAT_ID":68048,"ELEMENT_SET_NO":999,"REV_AT_EPOCH":391,"BSTAR":-2.5511379e-5,"MEAN_MOTION_DOT":-4.546e-5,"MEAN_MOTION_DDOT":0},{"OBJECT_NAME":"STARLINK-36885","OBJECT_ID":"2026-041K","EPOCH":"2026-03-19T05:08:22.722432","MEAN_MOTION":15.75265726,"ECCENTRICITY":8.484e-5,"INCLINATION":53.1605,"RA_OF_ASC_NODE":14.4878,"ARG_OF_PERICENTER":97.9383,"MEAN_ANOMALY":262.1733,"EPHEMERIS_TYPE":0,"CLASSIFICATION_TYPE":"U","NORAD_CAT_ID":68049,"ELEMENT_SET_NO":999,"REV_AT_EPOCH":272,"BSTAR":0.00077343186,"MEAN_MOTION_DOT":0.00119749,"MEAN_MOTION_DDOT":0},{"OBJECT_NAME":"STARLINK-36945","OBJECT_ID":"2026-041L","EPOCH":"2026-03-19T06:19:58.913184","MEAN_MOTION":15.80923178,"ECCENTRICITY":9.886e-5,"INCLINATION":53.1601,"RA_OF_ASC_NODE":14.0813,"ARG_OF_PERICENTER":109.1864,"MEAN_ANOMALY":250.9266,"EPHEMERIS_TYPE":0,"CLASSIFICATION_TYPE":"U","NORAD_CAT_ID":68050,"ELEMENT_SET_NO":999,"REV_AT_EPOCH":273,"BSTAR":0.00079691539,"MEAN_MOTION_DOT":0.001599,"MEAN_MOTION_DDOT":0},{"OBJECT_NAME":"STARLINK-35911","OBJECT_ID":"2026-041M","EPOCH":"2026-03-19T06:17:48.745536","MEAN_MOTION":15.80965093,"ECCENTRICITY":0.00014792,"INCLINATION":53.1599,"RA_OF_ASC_NODE":14.0717,"ARG_OF_PERICENTER":169.9074,"MEAN_ANOMALY":190.1979,"EPHEMERIS_TYPE":0,"CLASSIFICATION_TYPE":"U","NORAD_CAT_ID":68051,"ELEMENT_SET_NO":999,"REV_AT_EPOCH":273,"BSTAR":0.0012536785,"MEAN_MOTION_DOT":0.0025527,"MEAN_MOTION_DDOT":0},{"OBJECT_NAME":"STARLINK-35808","OBJECT_ID":"2026-041N","EPOCH":"2026-03-19T06:16:44.490720","MEAN_MOTION":15.80946507,"ECCENTRICITY":9.023e-5,"INCLINATION":53.1599,"RA_OF_ASC_NODE":14.0659,"ARG_OF_PERICENTER":106.429,"MEAN_ANOMALY":253.6832,"EPHEMERIS_TYPE":0,"CLASSIFICATION_TYPE":"U","NORAD_CAT_ID":68052,"ELEMENT_SET_NO":999,"REV_AT_EPOCH":273,"BSTAR":0.0011796841,"MEAN_MOTION_DOT":0.00239516,"MEAN_MOTION_DDOT":0},{"OBJECT_NAME":"STARLINK-36919","OBJECT_ID":"2026-041P","EPOCH":"2026-03-19T06:15:39.580992","MEAN_MOTION":15.80950071,"ECCENTRICITY":0.00010414,"INCLINATION":53.1599,"RA_OF_ASC_NODE":14.0599,"ARG_OF_PERICENTER":116.0322,"MEAN_ANOMALY":244.0808,"EPHEMERIS_TYPE":0,"CLASSIFICATION_TYPE":"U","NORAD_CAT_ID":68053,"ELEMENT_SET_NO":999,"REV_AT_EPOCH":273,"BSTAR":0.0011787666,"MEAN_MOTION_DOT":0.00239363,"MEAN_MOTION_DDOT":0},{"OBJECT_NAME":"STARLINK-36924","OBJECT_ID":"2026-041Q","EPOCH":"2026-03-19T05:02:18.965472","MEAN_MOTION":15.75276405,"ECCENTRICITY":0.00010218,"INCLINATION":53.1607,"RA_OF_ASC_NODE":14.4596,"ARG_OF_PERICENTER":100.9165,"MEAN_ANOMALY":259.197,"EPHEMERIS_TYPE":0,"CLASSIFICATION_TYPE":"U","NORAD_CAT_ID":68054,"ELEMENT_SET_NO":999,"REV_AT_EPOCH":272,"BSTAR":0.00093529862,"MEAN_MOTION_DOT":0.00145457,"MEAN_MOTION_DDOT":0},{"OBJECT_NAME":"STARLINK-35998","OBJECT_ID":"2026-041R","EPOCH":"2026-03-19T06:14:34.733472","MEAN_MOTION":15.80963393,"ECCENTRICITY":8.687e-5,"INCLINATION":53.1599,"RA_OF_ASC_NODE":14.0556,"ARG_OF_PERICENTER":119.9373,"MEAN_ANOMALY":240.1736,"EPHEMERIS_TYPE":0,"CLASSIFICATION_TYPE":"U","NORAD_CAT_ID":68055,"ELEMENT_SET_NO":999,"REV_AT_EPOCH":273,"BSTAR":0.0012546197,"MEAN_MOTION_DOT":0.0025545,"MEAN_MOTION_DDOT":0},{"OBJECT_NAME":"STARLINK-36845","OBJECT_ID":"2026-041S","EPOCH":"2026-03-19T06:12:25.107552","MEAN_MOTION":15.80957253,"ECCENTRICITY":8.437e-5,"INCLINATION":53.1596,"RA_OF_ASC_NODE":14.0452,"ARG_OF_PERICENTER":105.7776,"MEAN_ANOMALY":254.334,"EPHEMERIS_TYPE":0,"CLASSIFICATION_TYPE":"U","NORAD_CAT_ID":68056,"ELEMENT_SET_NO":999,"REV_AT_EPOCH":273,"BSTAR":0.0012026513,"MEAN_MOTION_DOT":0.00244456,"MEAN_MOTION_DDOT":0}]
